STARLINK-32246          
1 60432U 24144H   26068.72540699 -.00002419  00000+0 -69639-4 0  9998
2 60432  53.1605 217.0336 0001159  99.4458 260.6674 15.30175002 89310
HAWK-11C                
1 62381U 24247E   26068.51221537  .00009223  00000+0  33290-3 0  9992
2 62381  45.0045 114.8762 0005900 329.7040  30.3502 15.28848020 67743
